[{"OBJECT_NAME":"STARLINK-32249","OBJECT_ID":"2024-144V","EPOCH":"2026-03-28T19:42:54.677952","MEAN_MOTION":15.30193439,"ECCENTRICITY":0.0001225,"INCLINATION":53.1593,"RA_OF_ASC_NODE":127.8824,"ARG_OF_PERICENTER":82.6497,"MEAN_ANOMALY":277.4643,"EPHEMERIS_TYPE":0,"CLASSIFICATION_TYPE":"U","NORAD_CAT_ID":60444,"ELEMENT_SET_NO":999,"REV_AT_EPOCH":9228,"BSTAR":1.501e-5,"MEAN_MOTION_DOT":8.5e-7,"MEAN_MOTION_DDOT":0},{"OBJECT_NAME":"STARLINK-32228","OBJECT_ID":"2024-144W","EPOCH":"2026-03-28T11:57:11.908800","MEAN_MOTION":15.30191472,"ECCENTRICITY":0.0001199,"INCLINATION":53.1595,"RA_OF_ASC_NODE":129.4214,"ARG_OF_PERICENTER":98.7375,"MEAN_ANOMALY":261.3762,"EPHEMERIS_TYPE":0,"CLASSIFICATION_TYPE":"U","NORAD_CAT_ID":60445,"ELEMENT_SET_NO":999,"REV_AT_EPOCH":9223,"BSTAR":2.3551e-5,"MEAN_MOTION_DOT":3.38e-6,"MEAN_MOTION_DDOT":0},{"OBJECT_NAME":"STARLINK-32247","OBJECT_ID":"2024-144X","EPOCH":"2026-03-28T08:49:11.107488","MEAN_MOTION":15.30193651,"ECCENTRICITY":0.00012968,"INCLINATION":53.1601,"RA_OF_ASC_NODE":119.9482,"ARG_OF_PERICENTER":80.1038,"MEAN_ANOMALY":280.0109,"EPHEMERIS_TYPE":0,"CLASSIFICATION_TYPE":"U","NORAD_CAT_ID":60446,"ELEMENT_SET_NO":999,"REV_AT_EPOCH":9235,"BSTAR":1.6933514e-5,"MEAN_MOTION_DOT":1.42e-6,"MEAN_MOTION_DDOT":0},{"OBJECT_NAME":"STARLINK-32101","OBJECT_ID":"2024-144Y","EPOCH":"2026-03-28T19:55:04.046016","MEAN_MOTION":15.30192732,"ECCENTRICITY":0.0001494,"INCLINATION":53.1597,"RA_OF_ASC_NODE":127.9362,"ARG_OF_PERICENTER":88.2614,"MEAN_ANOMALY":271.8558,"EPHEMERIS_TYPE":0,"CLASSIFICATION_TYPE":"U","NORAD_CAT_ID":60447,"ELEMENT_SET_NO":999,"REV_AT_EPOCH":9224,"BSTAR":2.6993e-5,"MEAN_MOTION_DOT":4.4e-6,"MEAN_MOTION_DDOT":0},{"OBJECT_NAME":"STARLINK-31844","OBJECT_ID":"2024-150A","EPOCH":"2026-03-28T17:57:50.306688","MEAN_MOTION":15.30197086,"ECCENTRICITY":9.38e-5,"INCLINATION":53.1602,"RA_OF_ASC_NODE":218.1956,"ARG_OF_PERICENTER":97.8352,"MEAN_ANOMALY":262.2755,"EPHEMERIS_TYPE":0,"CLASSIFICATION_TYPE":"U","NORAD_CAT_ID":60583,"ELEMENT_SET_NO":999,"REV_AT_EPOCH":9096,"BSTAR":5.3029e-5,"MEAN_MOTION_DOT":1.212e-5,"MEAN_MOTION_DDOT":0},{"OBJECT_NAME":"STARLINK-32204","OBJECT_ID":"2024-150B","EPOCH":"2026-03-28T18:35:49.775424","MEAN_MOTION":15.30199246,"ECCENTRICITY":0.0001253,"INCLINATION":53.1615,"RA_OF_ASC_NODE":218.3608,"ARG_OF_PERICENTER":80.4994,"MEAN_ANOMALY":279.6149,"EPHEMERIS_TYPE":0,"CLASSIFICATION_TYPE":"U","NORAD_CAT_ID":60584,"ELEMENT_SET_NO":999,"REV_AT_EPOCH":9096,"BSTAR":4.916e-5,"MEAN_MOTION_DOT":1.097e-5,"MEAN_MOTION_DDOT":0},{"OBJECT_NAME":"STARLINK-32130","OBJECT_ID":"2024-150C","EPOCH":"2026-03-28T14:27:06.414048","MEAN_MOTION":15.30192382,"ECCENTRICITY":0.0001002,"INCLINATION":53.1605,"RA_OF_ASC_NODE":219.4134,"ARG_OF_PERICENTER":87.5444,"MEAN_ANOMALY":272.5671,"EPHEMERIS_TYPE":0,"CLASSIFICATION_TYPE":"U","NORAD_CAT_ID":60585,"ELEMENT_SET_NO":999,"REV_AT_EPOCH":9085,"BSTAR":6.1555e-5,"MEAN_MOTION_DOT":1.464e-5,"MEAN_MOTION_DDOT":0},{"OBJECT_NAME":"STARLINK-32173","OBJECT_ID":"2024-150D","EPOCH":"2026-03-28T18:17:35.749248","MEAN_MOTION":15.30196014,"ECCENTRICITY":0.0001057,"INCLINATION":53.1609,"RA_OF_ASC_NODE":218.2786,"ARG_OF_PERICENTER":67.1509,"MEAN_ANOMALY":292.9604,"EPHEMERIS_TYPE":0,"CLASSIFICATION_TYPE":"U","NORAD_CAT_ID":60586,"ELEMENT_SET_NO":999,"REV_AT_EPOCH":9096,"BSTAR":2.6962e-5,"MEAN_MOTION_DOT":4.39e-6,"MEAN_MOTION_DDOT":0},{"OBJECT_NAME":"STARLINK-31911","OBJECT_ID":"2024-150E","EPOCH":"2026-03-28T15:47:29.325984","MEAN_MOTION":15.30190427,"ECCENTRICITY":0.0001213,"INCLINATION":53.1594,"RA_OF_ASC_NODE":219.0552,"ARG_OF_PERICENTER":74.9839,"MEAN_ANOMALY":285.1295,"EPHEMERIS_TYPE":0,"CLASSIFICATION_TYPE":"U","NORAD_CAT_ID":60587,"ELEMENT_SET_NO":999,"REV_AT_EPOCH":9086,"BSTAR":2.7045e-5,"MEAN_MOTION_DOT":4.42e-6,"MEAN_MOTION_DDOT":0},{"OBJECT_NAME":"STARLINK-31994","OBJECT_ID":"2024-150F","EPOCH":"2026-03-28T19:41:00.500352","MEAN_MOTION":15.30198203,"ECCENTRICITY":0.000112,"INCLINATION":53.1604,"RA_OF_ASC_NODE":217.9263,"ARG_OF_PERICENTER":93.5814,"MEAN_ANOMALY":266.5315,"EPHEMERIS_TYPE":0,"CLASSIFICATION_TYPE":"U","NORAD_CAT_ID":60588,"ELEMENT_SET_NO":999,"REV_AT_EPOCH":9089,"BSTAR":7.3656e-5,"MEAN_MOTION_DOT":1.823e-5,"MEAN_MOTION_DDOT":0},{"OBJECT_NAME":"STARLINK-32169","OBJECT_ID":"2024-150G","EPOCH":"2026-03-28T17:51:55.630368","MEAN_MOTION":15.30195654,"ECCENTRICITY":0.0001126,"INCLINATION":53.1607,"RA_OF_ASC_NODE":218.8789,"ARG_OF_PERICENTER":117.8269,"MEAN_ANOMALY":242.2846,"EPHEMERIS_TYPE":0,"CLASSIFICATION_TYPE":"U","NORAD_CAT_ID":60589,"ELEMENT_SET_NO":999,"REV_AT_EPOCH":9095,"BSTAR":3.1255e-5,"MEAN_MOTION_DOT":5.67e-6,"MEAN_MOTION_DDOT":0},{"OBJECT_NAME":"STARLINK-32209","OBJECT_ID":"2024-150H","EPOCH":"2026-03-28T15:17:05.397792","MEAN_MOTION":15.3019258,"ECCENTRICITY":0.000128,"INCLINATION":53.1613,"RA_OF_ASC_NODE":218.9178,"ARG_OF_PERICENTER":80.9381,"MEAN_ANOMALY":279.1765,"EPHEMERIS_TYPE":0,"CLASSIFICATION_TYPE":"U","NORAD_CAT_ID":60590,"ELEMENT_SET_NO":999,"REV_AT_EPOCH":9094,"BSTAR":3.8219e-5,"MEAN_MOTION_DOT":7.73e-6,"MEAN_MOTION_DDOT":0},{"OBJECT_NAME":"STARLINK-32170","OBJECT_ID":"2024-150J","EPOCH":"2026-03-28T17:44:21.196608","MEAN_MOTION":15.30182928,"ECCENTRICITY":0.0001498,"INCLINATION":53.1619,"RA_OF_ASC_NODE":218.8467,"ARG_OF_PERICENTER":95.8041,"MEAN_ANOMALY":264.3131,"EPHEMERIS_TYPE":0,"CLASSIFICATION_TYPE":"U","NORAD_CAT_ID":60591,"ELEMENT_SET_NO":999,"REV_AT_EPOCH":9087,"BSTAR":-1.306e-5,"MEAN_MOTION_DOT":-7.46e-6,"MEAN_MOTION_DDOT":0},{"OBJECT_NAME":"STARLINK-31497","OBJECT_ID":"2024-150K","EPOCH":"2026-03-28T15:36:51.044256","MEAN_MOTION":15.30191989,"ECCENTRICITY":0.0001066,"INCLINATION":53.1586,"RA_OF_ASC_NODE":219.0041,"ARG_OF_PERICENTER":76.1189,"MEAN_ANOMALY":283.993,"EPHEMERIS_TYPE":0,"CLASSIFICATION_TYPE":"U","NORAD_CAT_ID":60592,"ELEMENT_SET_NO":999,"REV_AT_EPOCH":9094,"BSTAR":-1.7645e-5,"MEAN_MOTION_DOT":-8.81e-6,"MEAN_MOTION_DDOT":0},{"OBJECT_NAME":"STARLINK-32161","OBJECT_ID":"2024-150L","EPOCH":"2026-03-28T18:22:09.389280","MEAN_MOTION":15.30185355,"ECCENTRICITY":9.74e-5,"INCLINATION":53.159,"RA_OF_ASC_NODE":218.2965,"ARG_OF_PERICENTER":92.1181,"MEAN_ANOMALY":267.9931,"EPHEMERIS_TYPE":0,"CLASSIFICATION_TYPE":"U","NORAD_CAT_ID":60593,"ELEMENT_SET_NO":999,"REV_AT_EPOCH":9088,"BSTAR":-6.4827e-5,"MEAN_MOTION_DOT":-2.277e-5,"MEAN_MOTION_DDOT":0},{"OBJECT_NAME":"STARLINK-32210","OBJECT_ID":"2024-150M","EPOCH":"2026-03-28T18:02:24.122976","MEAN_MOTION":15.30203179,"ECCENTRICITY":9.24e-5,"INCLINATION":53.161,"RA_OF_ASC_NODE":218.2127,"ARG_OF_PERICENTER":77.0893,"MEAN_ANOMALY":283.0211,"EPHEMERIS_TYPE":0,"CLASSIFICATION_TYPE":"U","NORAD_CAT_ID":60594,"ELEMENT_SET_NO":999,"REV_AT_EPOCH":9096,"BSTAR":0.00016748,"MEAN_MOTION_DOT":4.605e-5,"MEAN_MOTION_DDOT":0},{"OBJECT_NAME":"STARLINK-32202","OBJECT_ID":"2024-150N","EPOCH":"2026-03-28T19:04:42.811680","MEAN_MOTION":15.30192278,"ECCENTRICITY":0.0001237,"INCLINATION":53.1609,"RA_OF_ASC_NODE":218.4859,"ARG_OF_PERICENTER":89.7641,"MEAN_ANOMALY":270.3501,"EPHEMERIS_TYPE":0,"CLASSIFICATION_TYPE":"U","NORAD_CAT_ID":60595,"ELEMENT_SET_NO":999,"REV_AT_EPOCH":9096,"BSTAR":6.6615e-6,"MEAN_MOTION_DOT":-1.62e-6,"MEAN_MOTION_DDOT":0}]
