STARLINK-32249          
1 60444U 24144V   26087.82146618  .00000085  00000+0  15010-4 0  9995
2 60444  53.1593 127.8824 0001225  82.6497 277.4643 15.30193439 92286
STARLINK-32228          
1 60445U 24144W   26087.49805450  .00000338  00000+0  23551-4 0  9995
2 60445  53.1595 129.4214 0001199  98.7375 261.3762 15.30191472 92237
STARLINK-32247          
1 60446U 24144X   26087.36748967  .00000142  00000+0  16934-4 0  9991
2 60446  53.1601 119.9482 0001296  80.1038 280.0109 15.30193651 92353
STARLINK-32101          
1 60447U 24144Y   26087.82990794  .00000440  00000+0  26993-4 0  9997
2 60447  53.1597 127.9362 0001494  88.2614 271.8558 15.30192732 92246
STARLINK-31844          
1 60583U 24150A   26087.74849892  .00001212  00000+0  53029-4 0  9996
2 60583  53.1602 218.1956 0000938  97.8352 262.2755 15.30197086 90960
STARLINK-32204          
1 60584U 24150B   26087.77488166  .00001097  00000+0  49160-4 0  9995
2 60584  53.1615 218.3608 0001253  80.4994 279.6149 15.30199246 90961
STARLINK-32130          
1 60585U 24150C   26087.60215757  .00001464  00000+0  61555-4 0  9992
2 60585  53.1605 219.4134 0001002  87.5444 272.5671 15.30192382 90851
STARLINK-32173          
1 60586U 24150D   26087.76221932  .00000439  00000+0  26962-4 0  9996
2 60586  53.1609 218.2786 0001057  67.1509 292.9604 15.30196014 90962
STARLINK-31911          
1 60587U 24150E   26087.65797831  .00000442  00000+0  27045-4 0  9998
2 60587  53.1594 219.0552 0001213  74.9839 285.1295 15.30190427 90863
STARLINK-31994          
1 60588U 24150F   26087.82014468  .00001823  00000+0  73656-4 0  9999
2 60588  53.1604 217.9263 0001120  93.5814 266.5315 15.30198203 90898
STARLINK-32169          
1 60589U 24150G   26087.74439387  .00000567  00000+0  31255-4 0  9995
2 60589  53.1607 218.8789 0001126 117.8269 242.2846 15.30195654 90959
STARLINK-32209          
1 60590U 24150H   26087.63686803  .00000773  00000+0  38219-4 0  9998
2 60590  53.1613 218.9178 0001280  80.9381 279.1765 15.30192580 90940
STARLINK-32170          
1 60591U 24150J   26087.73913422 -.00000746  00000+0 -13060-4 0  9999
2 60591  53.1619 218.8467 0001498  95.8041 264.3131 15.30182928 90876
STARLINK-31497          
1 60592U 24150K   26087.65059079 -.00000881  00000+0 -17645-4 0  9993
2 60592  53.1586 219.0041 0001066  76.1189 283.9930 15.30191989 90946
STARLINK-32161          
1 60593U 24150L   26087.76538645 -.00002277  00000+0 -64827-4 0  9992
2 60593  53.1590 218.2965 0000974  92.1181 267.9931 15.30185355 90881
STARLINK-32210          
1 60594U 24150M   26087.75166809  .00004605  00000+0  16748-3 0  9994
2 60594  53.1610 218.2127 0000924  77.0893 283.0211 15.30203179 90966
STARLINK-32202          
1 60595U 24150N   26087.79493995 -.00000162  00000+0  66615-5 0  9993
2 60595  53.1609 218.4859 0001237  89.7641 270.3501 15.30192278 90966
